$$SOE
2461302.500000000, A.D. 2026-Sep-19 00:00:00.0000, -5.883298092161508E+07, 3.423971225243392E+08, -1.329815677523874E+07,
2461309.500000000, A.D. 2026-Sep-26 00:00:00.0000, -7.032180234273978E+07, 3.386947500521220E+08, -1.277026549411747E+07,
2461316.500000000, A.D. 2026-Oct-03 00:00:00.0000, -8.172841298324737E+07, 3.345960502057638E+08, -1.222742349713466E+07,
2461323.500000000, A.D. 2026-Oct-10 00:00:00.0000, -9.303820941858941E+07, 3.301006741342123E+08, -1.167007789884733E+07,
2461330.500000000, A.D. 2026-Oct-17 00:00:00.0000, -1.042363414632025E+08, 3.252088339827776E+08, -1.109870850089055E+07,
2461337.500000000, A.D. 2026-Oct-24 00:00:00.0000, -1.153077329023052E+08, 3.199213301613597E+08, -1.051382834925082E+07,
2461344.500000000, A.D. 2026-Oct-31 00:00:00.0000, -1.262371046485495E+08, 3.142395781234133E+08, -9.915984219452083E+06,
2461351.500000000, A.D. 2026-Nov-07 00:00:00.0000, -1.370090000663512E+08, 3.081656345137191E+08, -9.305757042312264E+06,
2461358.500000000, A.D. 2026-Nov-14 00:00:00.0000, -1.476078123299530E+08, 3.017022233385813E+08, -8.683762203552499E+06,
2461365.500000000, A.D. 2026-Nov-21 00:00:00.0000, -1.580178156759320E+08, 2.948527625934092E+08, -8.050649483255491E+06,
2461372.500000000, A.D. 2026-Nov-28 00:00:00.0000, -1.682232015684202E+08, 2.876213880767642E+08, -7.407102777324021E+06,
2461379.500000000, A.D. 2026-Dec-05 00:00:00.0000, -1.782081161505360E+08, 2.800129734451228E+08, -6.753839972645029E+06,
2461386.500000000, A.D. 2026-Dec-12 00:00:00.0000, -1.879566987931749E+08, 2.720331493254746E+08, -6.091612724598929E+06,
2461393.500000000, A.D. 2026-Dec-19 00:00:00.0000, -1.974531235659280E+08, 2.636883211999269E+08, -5.421205953143179E+06,
2461400.500000000, A.D. 2026-Dec-26 00:00:00.0000, -2.066816436652661E+08, 2.549856848864163E+08, -4.743437104385033E+06,
2461407.500000000, A.D. 2027-Jan-02 00:00:00.0000, -2.156266383802009E+08, 2.459332391049583E+08, -4.059155207454309E+06,
2461414.500000000, A.D. 2027-Jan-09 00:00:00.0000, -2.242726623021185E+08, 2.365397948279986E+08, -3.369239725828975E+06,
2461421.500000000, A.D. 2027-Jan-16 00:00:00.0000, -2.326044965368566E+08, 2.268149811126497E+08, -2.674599198109731E+06,
2461428.500000000, A.D. 2027-Jan-23 00:00:00.0000, -2.406072016312560E+08, 2.167692470869302E+08, -1.976169671326458E+06,
2461435.500000000, A.D. 2027-Jan-30 00:00:00.0000, -2.482661717400369E+08, 2.064138597806172E+08, -1.274912946267441E+06,
2461442.500000000, A.D. 2027-Feb-06 00:00:00.0000, -2.555671892726990E+08, 1.957608979030787E+08, -5.718146463252753E+05,
2461449.500000000, A.D. 2027-Feb-13 00:00:00.0000, -2.624964801007736E+08, 1.848232425735937E+08, 1.321180297390968E+05,
2461456.500000000, A.D. 2027-Feb-20 00:00:00.0000, -2.690407712752070E+08, 1.736145640306260E+08, 8.358590179844275E+05,
2461463.500000000, A.D. 2027-Feb-27 00:00:00.0000, -2.751873494098293E+08, 1.621493009657010E+08, 1.538366163452968E+06,
2461470.500000000, A.D. 2027-Mar-06 00:00:00.0000, -2.809241162294616E+08, 1.504426343007012E+08, 2.238583928534858E+06,
2461477.500000000, A.D. 2027-Mar-13 00:00:00.0000, -2.862396423924553E+08, 1.385104574011731E+08, 2.935446335849300E+06,
2461484.500000000, A.D. 2027-Mar-20 00:00:00.0000, -2.911232202246258E+08, 1.263693419060332E+08, 3.627880162663460E+06,
2461491.500000000, A.D. 2027-Mar-27 00:00:00.0000, -2.955649146551595E+08, 1.140364987069696E+08, 4.314808303127922E+06,
2461498.500000000, A.D. 2027-Apr-03 00:00:00.0000, -2.995556116383984E+08, 1.015297341721006E+08, 4.995153253554568E+06,
2461505.500000000, A.D. 2027-Apr-10 00:00:00.0000, -3.030870634939373E+08, 8.886740184083083E+07, 5.667840692294866E+06,
2461512.500000000, A.D. 2027-Apr-17 00:00:00.0000, -3.061519306531476E+08, 7.606834984124476E+07, 6.331803124016646E+06,
2461519.500000000, A.D. 2027-Apr-24 00:00:00.0000, -3.087438192690839E+08, 6.315186429362409E+07, 6.985983547104925E+06,
2461526.500000000, A.D. 2027-May-01 00:00:00.0000, -3.108573139614508E+08, 5.013760911106677E+07, 7.629339088577438E+06,
2461533.500000000, A.D. 2027-May-08 00:00:00.0000, -3.124880050038266E+08, 3.704556338189264E+07, 8.260844608072203E+06,
2461540.500000000, A.D. 2027-May-15 00:00:00.0000, -3.136325111166902E+08, 2.389595777020548E+07, 8.879496454056928E+06,
2461547.500000000, A.D. 2027-May-22 00:00:00.0000, -3.142884991606950E+08, 1.070920786650898E+07, 9.484316271593697E+06,
2461554.500000000, A.D. 2027-May-29 00:00:00.0000, -3.144546971720684E+08, -2.494156418404181E+06, 1.007435440255195E+07,
2461561.500000000, A.D. 2027-Jun-05 00:00:00.0000, -3.141308997104666E+08, -1.569356169606183E+07, 1.064869302363851E+07,
2461568.500000000, A.D. 2027-Jun-12 00:00:00.0000, -3.133179674483175E+08, -2.886846115234423E+07, 1.120644921328535E+07,
2461575.500000000, A.D. 2027-Jun-19 00:00:00.0000, -3.120178213381469E+08, -4.199840414757790E+07, 1.174677787426410E+07,
2461582.500000000, A.D. 2027-Jun-26 00:00:00.0000, -3.102334311612911E+08, -5.506310502970530E+07, 1.226887444099989E+07,
2461589.500000000, A.D. 2027-Jul-03 00:00:00.0000, -3.079687984750588E+08, -6.804251056915213E+07, 1.277197733956377E+07,
2461596.500000000, A.D. 2027-Jul-10 00:00:00.0000, -3.052289341356360E+08, -8.091686545013116E+07, 1.325537018031644E+07,
2461603.500000000, A.D. 2027-Jul-17 00:00:00.0000, -3.020198306375905E+08, -9.366677533570257E+07, 1.371838366270675E+07,
2461610.500000000, A.D. 2027-Jul-24 00:00:00.0000, -2.983484294483061E+08, -1.062732670898140E+08, 1.416039716237144E+07,
2461617.500000000, A.D. 2027-Jul-31 00:00:00.0000, -2.942225833106502E+08, -1.187178454895080E+08, 1.458083997540359E+07,
2461624.500000000, A.D. 2027-Aug-07 00:00:00.0000, -2.896510141403733E+08, -1.309825448980069E+08, 1.497919232929473E+07,
2461631.500000000, A.D. 2027-Aug-14 00:00:00.0000, -2.846432692778345E+08, -1.430499758338758E+08, 1.535498635120074E+07,
2461638.500000000, A.D. 2027-Aug-21 00:00:00.0000, -2.792096759627573E+08, -1.549033695466469E+08, 1.570780666560476E+07,
2461645.500000000, A.D. 2027-Aug-28 00:00:00.0000, -2.733612911084332E+08, -1.665266192038613E+08, 1.603729041261981E+07,
2461652.500000000, A.D. 2027-Sep-04 00:00:00.0000, -2.671098480683814E+08, -1.779043150531624E+08, 1.634312701065512E+07,
2461659.500000000, A.D. 2027-Sep-11 00:00:00.0000, -2.604677022965057E+08, -1.890217741467976E+08, 1.662505775037023E+07,
2461666.500000000, A.D. 2027-Sep-18 00:00:00.0000, -2.534477762650058E+08, -1.998650652671283E+08, 1.688287516930260E+07,
2461673.500000000, A.D. 2027-Sep-25 00:00:00.0000, -2.460635038980756E+08, -2.104210291752420E+08, 1.711642219686311E+07,
2461680.500000000, A.D. 2027-Oct-02 00:00:00.0000, -2.383287749120787E+08, -2.206772942443001E+08, 1.732559108413351E+07,
2461687.500000000, A.D. 2027-Oct-09 00:00:00.0000, -2.302578794707668E+08, -2.306222876113400E+08, 1.751032213567285E+07,
2461694.500000000, A.D. 2027-Oct-16 00:00:00.0000, -2.218654534831632E+08, -2.402452420744491E+08, 1.767060225235870E+07,
2461701.500000000, A.D. 2027-Oct-23 00:00:00.0000, -2.131664246390750E+08, -2.495361989576852E+08, 1.780646328043306E+07,
2461708.500000000, A.D. 2027-Oct-30 00:00:00.0000, -2.041759591329915E+08, -2.584860065872708E+08, 1.791798020283850E+07,
2461715.500000000, A.D. 2027-Nov-06 00:00:00.0000, -1.949094105347225E+08, -2.670863135266488E+08, 1.800526939327165E+07,
2461722.500000000, A.D. 2027-Nov-13 00:00:00.0000, -1.853822730485239E+08, -2.753295589333180E+08, 1.806848696658613E+07,
2461729.500000000, A.D. 2027-Nov-20 00:00:00.0000, -1.756101364732168E+08, -2.832089625194020E+08, 1.810782680108970E+07,
2461736.500000000, A.D. 2027-Nov-27 00:00:00.0000, -1.656086414193163E+08, -2.907185114530875E+08, 1.812351834609824E+07,
2461743.500000000, A.D. 2027-Dec-04 00:00:00.0000, -1.553934369397055E+08, -2.978529435880053E+08, 1.811582449308357E+07,
2461750.500000000, A.D. 2027-Dec-11 00:00:00.0000, -1.449801412195921E+08, -3.046077282822189E+08, 1.808503949851626E+07,
2461757.500000000, A.D. 2027-Dec-18 00:00:00.0000, -1.343843051114377E+08, -3.109790454379932E+08, 1.803148692011678E+07,
2461764.500000000, A.D. 2027-Dec-25 00:00:00.0000, -1.236213783922966E+08, -3.169637630496321E+08, 1.795551756550033E+07,
2461771.500000000, A.D. 2028-Jan-01 00:00:00.0000, -1.127066787051923E+08, -3.225594135210493E+08, 1.785750746276297E+07,
$$EOE